{
  "type": "FeatureCollection",
  "features": [
    {
      "type": "Feature",
      "properties": {
        "norad_id": 33972,
        "name": "COSMOS 2251 DEB",
        "group": "cosmos-2251-debris",
        "lat": 67.1314671184194,
        "lon": -33.28462053576082,
        "alt_km": 792.2265052157463,
        "timestamp": "2025-12-13T07:35:41.898079+00:00",
        "meta_object_name": "COSMOS 2251 DEB",
        "meta_object_id": "1993-036FF",
        "meta_epoch": "2025-12-12T23:03:49.055616",
        "meta_mean_motion": 14.3622604,
        "meta_eccentricity": 0.01232974,
        "meta_inclination": 73.9944,
        "meta_ra_of_asc_node": 190.2567,
        "meta_arg_of_pericenter": 357.9689,
        "meta_mean_anomaly": 70.0008,
        "meta_ephemeris_type": 0,
        "meta_classification_type": "U",
        "meta_norad_cat_id": 33972,
        "meta_element_set_no": 999,
        "meta_rev_at_epoch": 87077,
        "meta_bstar": 0.00166661,
        "meta_mean_motion_dot": 5.282e-05,
        "meta_mean_motion_ddot": 0,
        "tle_line1": "1 33972U 93036FF  25346.96098444  .00005282  00000+0  16666-2 0  9992",
        "tle_line2": "2 33972  73.9944 190.2567 0123297 357.9689  70.0008 14.36226040870775"
      },
      "geometry": {
        "type": "Point",
        "coordinates": [
          -33.28462053576082,
          67.1314671184194
        ]
      }
    },
    {
      "type": "Feature",
      "properties": {
        "norad_id": 33973,
        "name": "COSMOS 2251 DEB",
        "group": "cosmos-2251-debris",
        "lat": -51.59696068272154,
        "lon": -56.974037041067774,
        "alt_km": 723.6479627291765,
        "timestamp": "2025-12-13T07:35:41.898088+00:00",
        "meta_object_name": "COSMOS 2251 DEB",
        "meta_object_id": "1993-036FG",
        "meta_epoch": "2025-12-12T17:45:15.721920",
        "meta_mean_motion": 14.45391131,
        "meta_eccentricity": 0.00473316,
        "meta_inclination": 74.0084,
        "meta_ra_of_asc_node": 102.8928,
        "meta_arg_of_pericenter": 281.3062,
        "meta_mean_anomaly": 194.07,
        "meta_ephemeris_type": 0,
        "meta_classification_type": "U",
        "meta_norad_cat_id": 33973,
        "meta_element_set_no": 999,
        "meta_rev_at_epoch": 88600,
        "meta_bstar": 0.00025232311,
        "meta_mean_motion_dot": 8.72e-06,
        "meta_mean_motion_ddot": 0,
        "tle_line1": "1 33973U 93036FG  25346.73976530  .00000872  00000+0  25232-3 0  9999",
        "tle_line2": "2 33973  74.0084 102.8928 0047331 281.3062 194.0700 14.45391131886005"
      },
      "geometry": {
        "type": "Point",
        "coordinates": [
          -56.974037041067774,
          -51.59696068272154
        ]
      }
    },
    {
      "type": "Feature",
      "properties": {
        "norad_id": 33975,
        "name": "COSMOS 2251 DEB",
        "group": "cosmos-2251-debris",
        "lat": 71.74235169522757,
        "lon": 145.21388762885786,
        "alt_km": 981.2572396547448,
        "timestamp": "2025-12-13T07:35:41.898098+00:00",
        "meta_object_name": "COSMOS 2251 DEB",
        "meta_object_id": "1993-036FJ",
        "meta_epoch": "2025-12-12T22:37:19.668000",
        "meta_mean_motion": 14.00525873,
        "meta_eccentricity": 0.01913102,
        "meta_inclination": 73.802,
        "meta_ra_of_asc_node": 84.0965,
        "meta_arg_of_pericenter": 216.9608,
        "meta_mean_anomaly": 141.8219,
        "meta_ephemeris_type": 0,
        "meta_classification_type": "U",
        "meta_norad_cat_id": 33975,
        "meta_element_set_no": 999,
        "meta_rev_at_epoch": 85832,
        "meta_bstar": 0.00098147482,
        "meta_mean_motion_dot": 1.682e-05,
        "meta_mean_motion_ddot": 0,
        "tle_line1": "1 33975U 93036FJ  25346.94258875  .00001682  00000+0  98147-3 0  9994",
        "tle_line2": "2 33975  73.8020  84.0965 0191310 216.9608 141.8219 14.00525873858325"
      },
      "geometry": {
        "type": "Point",
        "coordinates": [
          145.21388762885786,
          71.74235169522757
        ]
      }
    },
    {
      "type": "Feature",
      "properties": {
        "norad_id": 33980,
        "name": "COSMOS 2251 DEB",
        "group": "cosmos-2251-debris",
        "lat": 37.71311475098738,
        "lon": 71.09728947818182,
        "alt_km": 713.909013476753,
        "timestamp": "2025-12-13T07:35:41.898107+00:00",
        "meta_object_name": "COSMOS 2251 DEB",
        "meta_object_id": "1993-036FP",
        "meta_epoch": "2025-12-12T22:04:05.054880",
        "meta_mean_motion": 14.58654779,
        "meta_eccentricity": 0.00286899,
        "meta_inclination": 74.0218,
        "meta_ra_of_asc_node": 59.0531,
        "meta_arg_of_pericenter": 204.3612,
        "meta_mean_anomaly": 271.7156,
        "meta_ephemeris_type": 0,
        "meta_classification_type": "U",
        "meta_norad_cat_id": 33980,
        "meta_element_set_no": 999,
        "meta_rev_at_epoch": 88797,
        "meta_bstar": 0.0010546413,
        "meta_mean_motion_dot": 4.916e-05,
        "meta_mean_motion_ddot": 0,
        "tle_line1": "1 33980U 93036FP  25346.91950295  .00004916  00000+0  10546-2 0  9991",
        "tle_line2": "2 33980  74.0218  59.0531 0028689 204.3612 271.7156 14.58654779887975"
      },
      "geometry": {
        "type": "Point",
        "coordinates": [
          71.09728947818182,
          37.71311475098738
        ]
      }
    },
    {
      "type": "Feature",
      "properties": {
        "norad_id": 33982,
        "name": "COSMOS 2251 DEB",
        "group": "cosmos-2251-debris",
        "lat": -69.6295794013134,
        "lon": -130.8843605311662,
        "alt_km": 743.3132356647629,
        "timestamp": "2025-12-13T07:35:41.898117+00:00",
        "meta_object_name": "COSMOS 2251 DEB",
        "meta_object_id": "1993-036FR",
        "meta_epoch": "2025-12-12T19:41:50.231328",
        "meta_mean_motion": 14.60211992,
        "meta_eccentricity": 0.00750634,
        "meta_inclination": 74.071,
        "meta_ra_of_asc_node": 359.7817,
        "meta_arg_of_pericenter": 44.242,
        "meta_mean_anomaly": 128.4595,
        "meta_ephemeris_type": 0,
        "meta_classification_type": "U",
        "meta_norad_cat_id": 33982,
        "meta_element_set_no": 999,
        "meta_rev_at_epoch": 89160,
        "meta_bstar": 0.00062259344,
        "meta_mean_motion_dot": 3.093e-05,
        "meta_mean_motion_ddot": 0,
        "tle_line1": "1 33982U 93036FR  25346.82072027  .00003093  00000+0  62259-3 0  9995",
        "tle_line2": "2 33982  74.0710 359.7817 0075063  44.2420 128.4595 14.60211992891606"
      },
      "geometry": {
        "type": "Point",
        "coordinates": [
          -130.8843605311662,
          -69.6295794013134
        ]
      }
    },
    {
      "type": "Feature",
      "properties": {
        "norad_id": 33983,
        "name": "COSMOS 2251 DEB",
        "group": "cosmos-2251-debris",
        "lat": 9.999919610629988,
        "lon": -36.927895099820674,
        "alt_km": 721.8660477829044,
        "timestamp": "2025-12-13T07:35:41.898126+00:00",
        "meta_object_name": "COSMOS 2251 DEB",
        "meta_object_id": "1993-036FS",
        "meta_epoch": "2025-12-12T21:35:10.199904",
        "meta_mean_motion": 14.5067208,
        "meta_eccentricity": 0.00213487,
        "meta_inclination": 74.0494,
        "meta_ra_of_asc_node": 146.7457,
        "meta_arg_of_pericenter": 249.7872,
        "meta_mean_anomaly": 262.8983,
        "meta_ephemeris_type": 0,
        "meta_classification_type": "U",
        "meta_norad_cat_id": 33983,
        "meta_element_set_no": 999,
        "meta_rev_at_epoch": 88631,
        "meta_bstar": 0.00087472782,
        "meta_mean_motion_dot": 3.42e-05,
        "meta_mean_motion_ddot": 0,
        "tle_line1": "1 33983U 93036FS  25346.89942361  .00003420  00000+0  87473-3 0  9999",
        "tle_line2": "2 33983  74.0494 146.7457 0021348 249.7872 262.8983 14.50672080886314"
      },
      "geometry": {
        "type": "Point",
        "coordinates": [
          -36.927895099820674,
          9.999919610629988
        ]
      }
    },
    {
      "type": "Feature",
      "properties": {
        "norad_id": 33984,
        "name": "COSMOS 2251 DEB",
        "group": "cosmos-2251-debris",
        "lat": -49.01249153019262,
        "lon": -33.28098334403261,
        "alt_km": 688.3289093204266,
        "timestamp": "2025-12-13T07:35:41.898135+00:00",
        "meta_object_name": "COSMOS 2251 DEB",
        "meta_object_id": "1993-036FT",
        "meta_epoch": "2025-12-12T23:46:54.782112",
        "meta_mean_motion": 14.66368163,
        "meta_eccentricity": 0.00230864,
        "meta_inclination": 74.0099,
        "meta_ra_of_asc_node": 346.6168,
        "meta_arg_of_pericenter": 184.7833,
        "meta_mean_anomaly": 205.5073,
        "meta_ephemeris_type": 0,
        "meta_classification_type": "U",
        "meta_norad_cat_id": 33984,
        "meta_element_set_no": 999,
        "meta_rev_at_epoch": 89070,
        "meta_bstar": 0.0011912164,
        "meta_mean_motion_dot": 6.583e-05,
        "meta_mean_motion_ddot": 0,
        "tle_line1": "1 33984U 93036FT  25346.99091183  .00006583  00000+0  11912-2 0  9995",
        "tle_line2": "2 33984  74.0099 346.6168 0023086 184.7833 205.5073 14.66368163890705"
      },
      "geometry": {
        "type": "Point",
        "coordinates": [
          -33.28098334403261,
          -49.01249153019262
        ]
      }
    }
  ]
}